NORAD_CAT_ID,OBJECT_NAME,OBJECT_TYPE,EPOCH,MEAN_MOTION,ECCENTRICITY,INCLINATION,RA_OF_ASC_NODE,ARG_OF_PERICENTER,MEAN_ANOMALY,BSTAR,MEAN_MOTION_DOT,MEAN_MOTION_DDOT,TLE_LINE0,TLE_LINE1,TLE_LINE2,SEMIMAJOR_AXIS,PERIOD,APOGEE,PERIGEE,DECAYED
56459.0,STARLINK-6048,PAYLOAD,2024-01-14 21:19:20,14.98326775,0.0002769,70.0003,323.0898,271.4865,88.5976,0.00013452,1.512e-05,0.0,0 STARLINK-6048,1 56459U 23064M   24014.88842617  .00001512  00000-0  13452-3 0  9996,2 56459  70.0003 323.0898 0002769 271.4865  88.5976 14.98326775 37691,6950.203,96.107,573.992,570.143,0.0
56459.0,STARLINK-6048,PAYLOAD,2024-01-15 06:56:07,14.98326287,0.0002506,70.0007,322.079,260.2176,99.87,0.00039306,4.6e-05,0.0,0 STARLINK-6048,1 56459U 23064M   24015.28898001  .00004600  00000-0  39306-3 0  9996,2 56459  70.0007 322.0790 0002506 260.2176  99.8700 14.98326287 38111,6950.204,96.107,573.811,570.328,0.0
56459.0,STARLINK-6048,PAYLOAD,2024-01-16 00:33:37,14.98326855,0.0002818,70.0006,320.2289,262.9467,97.1372,-7.4754e-05,-9.85e-06,0.0,0 STARLINK-6048,1 56459U 23064M   24016.02335102 -.00000985  00000-0 -74754-4 0  9998,2 56459  70.0006 320.2289 0002818 262.9467  97.1372 14.98326855 38220,6950.203,96.107,574.026,570.109,0.0
56459.0,STARLINK-6048,PAYLOAD,2024-01-16 06:58:09,14.98328962,0.0002695,70.0007,319.5556,255.0564,105.0297,-5.2324e-05,-7.17e-06,0.0,0 STARLINK-6048,1 56459U 23064M   24016.29038888 -.00000717  00000-0 -52324-4 0  9990,2 56459  70.0007 319.5556 0002695 255.0564 105.0297 14.98328962 37903,6950.196,96.107,573.934,570.188,0.0
56459.0,STARLINK-6048,PAYLOAD,2024-01-16 21:23:22,14.9833081,0.000295,69.9988,318.0373,262.1834,97.899,-8.312e-05,-1.085e-05,0.0,0 STARLINK-6048,1 56459U 23064M   24016.89122893 -.00001085  00000-0 -83120-4 0  9993,2 56459  69.9988 318.0373 0002950 262.1834  97.8990 14.98330810 37994,6950.19,96.107,574.106,570.005,0.0
56459.0,STARLINK-6048,PAYLOAD,2024-01-17 03:47:54,14.983322,0.0002878,70.0004,317.3667,259.4881,100.5954,-2.2944e-05,-3.67e-06,0.0,0 STARLINK-6048,1 56459U 23064M   24017.15826603 -.00000367  00000-0 -22944-4 0  9992,2 56459  70.0004 317.3667 0002878 259.4881 100.5954 14.98332200 38396,6950.186,96.107,574.051,570.051,0.0
56459.0,STARLINK-6048,PAYLOAD,2024-01-17 05:24:02,14.98333487,0.0002859,70.0005,317.1986,260.1771,99.9066,-1.8075e-05,-3.09e-06,0.0,0 STARLINK-6048,1 56459U 23064M   24017.22502514 -.00000309  00000-0 -18075-4 0  9998,2 56459  70.0005 317.1986 0002859 260.1771  99.9066 14.98333487 38040,6950.182,96.107,574.034,570.06,0.0
56459.0,STARLINK-6048,PAYLOAD,2024-01-17 21:25:22,14.98326831,0.0002627,70.0007,315.5161,244.1973,115.8916,8.3061e-05,8.98e-06,0.0,0 STARLINK-6048,1 56459U 23064M   24017.89262613  .00000898  00000-0  83061-4 0  9992,2 56459  70.0007 315.5161 0002627 244.1973 115.8916 14.98326831 38146,6950.203,96.107,573.894,570.242,0.0
56459.0,STARLINK-6048,PAYLOAD,2024-01-18 03:49:55,14.98326785,0.000263,70.0008,314.843,244.2823,115.8064,7.4741e-05,7.99e-06,0.0,0 STARLINK-6048,1 56459U 23064M   24018.15966699  .00000799  00000-0  74741-4 0  9992,2 56459  70.0008 314.8430 0002630 244.2823 115.8064 14.98326785 38543,6950.203,96.107,573.896,570.24,0.0
56459.0,STARLINK-6048,PAYLOAD,2024-01-18 05:26:03,14.98323943,0.0002602,70.0006,314.6738,249.8113,110.2767,0.00011748,1.309e-05,0.0,0 STARLINK-6048,1 56459U 23064M   24018.22642818  .00001309  00000-0  11748-3 0  9999,2 56459  70.0006 314.6738 0002602 249.8113 110.2767 14.98323943 38195,6950.212,96.107,573.885,570.268,0.0
56459.0,STARLINK-6048,PAYLOAD,2024-01-18 21:27:23,14.98331187,0.0002662,70.0002,312.991,252.3442,107.7426,2.1941e-05,1.69e-06,0.0,0 STARLINK-6048,1 56459U 23064M   24018.89402622  .00000169  00000-0  21941-4 0  9999,2 56459  70.0002 312.9910 0002662 252.3442 107.7426 14.98331187 38297,6950.189,96.107,573.904,570.204,0.0
56459.0,STARLINK-6048,PAYLOAD,2024-01-19 03:51:56,14.9833181,0.0002649,70.0003,312.3178,252.5481,107.5389,2.8245e-05,2.44e-06,0.0,0 STARLINK-6048,1 56459U 23064M   24019.16106540  .00000244  00000-0  28245-4 0  9998,2 56459  70.0003 312.3178 0002649 252.5481 107.5389 14.98331810 38691,6950.187,96.107,573.893,570.211,0.0
56459.0,STARLINK-6048,PAYLOAD,2024-01-19 05:28:04,14.98332775,0.000264,70.0003,312.1492,257.3397,102.7467,4.082e-05,3.94e-06,0.0,0 STARLINK-6048,1 56459U 23064M   24019.22782470  .00000394  00000-0  40820-4 0  9996,2 56459  70.0003 312.1492 0002640 257.3397 102.7467 14.98332775 38345,6950.184,96.107,573.884,570.214,0.0
56459.0,STARLINK-6048,PAYLOAD,2024-01-19 23:05:32,14.98331713,0.0002638,70.0003,310.298,259.5014,100.5848,1.0451e-05,3.2e-07,0.0,0 STARLINK-6048,1 56459U 23064M   24019.96218505  .00000032  00000-0  10451-4 0  9996,2 56459  70.0003 310.2980 0002638 259.5014 100.5848 14.98331713 38455,6950.188,96.107,573.886,570.219,0.0
56459.0,STARLINK-6048,PAYLOAD,2024-01-20 03:53:56,14.9833339,0.0002612,70.0003,309.7932,258.8278,101.2587,3.0163e-05,2.67e-06,0.0,0 STARLINK-6048,1 56459U 23064M   24020.16246309  .00000267  00000-0  30163-4 0  9995,2 56459  70.0003 309.7932 0002612 258.8278 101.2587 14.98333390 38845,6950.182,96.107,573.863,570.232,0.0
56459.0,STARLINK-6048,PAYLOAD,2024-01-20 05:30:04,14.98334156,0.0002607,70.0003,309.6242,260.2649,99.8215,3.9689e-05,3.81e-06,0.0,0 STARLINK-6048,1 56459U 23064M   24020.22922237  .00000381  00000-0  39689-4 0  9992,2 56459  70.0003 309.6242 0002607 260.2649  99.8215 14.98334156 38493,6950.18,96.107,573.857,570.233,0.0
56459.0,STARLINK-6048,PAYLOAD,2024-01-20 23:07:33,14.98328804,0.0002511,70.0005,307.7729,256.3774,103.7105,-3.8348e-06,-1.39e-06,0.0,0 STARLINK-6048,1 56459U 23064M   24020.96358616 -.00000139  00000-0 -38348-5 0  9992,2 56459  70.0005 307.7729 0002511 256.3774 103.7105 14.98328804 38602,6950.197,96.107,573.807,570.316,0.0
56459.0,STARLINK-6048,PAYLOAD,2024-01-21 03:55:57,14.9833045,0.0002474,70.0006,307.2682,256.0586,104.0298,1.5856e-05,9.6e-07,0.0,0 STARLINK-6048,1 56459U 23064M   24021.16386460  .00000096  00000-0  15856-4 0  9991,2 56459  70.0006 307.2682 0002474 256.0586 104.0298 14.98330450 38991,6950.191,96.107,573.776,570.337,0.0
56459.0,STARLINK-6048,PAYLOAD,2024-01-21 05:32:05,14.983316,0.0002478,70.0005,307.0992,257.3538,102.7344,2.9829e-05,2.63e-06,0.0,0 STARLINK-6048,1 56459U 23064M   24021.23062366  .00000263  00000-0  29829-4 0  9996,2 56459  70.0005 307.0992 0002478 257.3538 102.7344 14.98331600 38644,6950.188,96.107,573.775,570.331,0.0
56459.0,STARLINK-6048,PAYLOAD,2024-01-21 19:57:17,14.98336484,0.0002508,70.0004,305.5841,255.704,104.3841,6.6583e-05,7.02e-06,0.0,0 STARLINK-6048,1 56459U 23064M   24021.83145749  .00000702  00000-0  66583-4 0  9995,2 56459  70.0004 305.5841 0002508 255.7040 104.3841 14.98336484 39098,6950.173,96.107,573.781,570.295,0.0
56459.0,STARLINK-6048,PAYLOAD,2024-01-21 21:33:25,14.98336447,0.0002513,70.0004,305.4158,255.5863,104.5017,6.4323e-05,6.75e-06,0.0,0 STARLINK-6048,1 56459U 23064M   24021.89821717  .00000675  00000-0  64323-4 0  9996,2 56459  70.0004 305.4158 0002513 255.5863 104.5017 14.98336447 38742,6950.173,96.107,573.785,570.291,0.0
56459.0,STARLINK-6048,PAYLOAD,2024-01-22 03:57:58,14.98319549,0.0002659,70.0005,304.7425,252.1679,107.919,0.00041082,4.811e-05,0.0,0 STARLINK-6048,1 56459U 23064M   24022.16525805  .00004811  00000-0  41082-3 0  9998,2 56459  70.0005 304.7425 0002659 252.1679 107.9190 14.98319549 39149,6950.225,96.108,573.938,570.242,0.0
56459.0,STARLINK-6048,PAYLOAD,2024-01-22 21:35:27,14.98318164,0.0002462,70.002,302.8914,230.8067,129.2874,0.00017778,2.028e-05,0.0,0 STARLINK-6048,1 56459U 23064M   24022.89962144  .00002028  00000-0  17778-3 0  9992,2 56459  70.0020 302.8914 0002462 230.8067 129.2874 14.98318164 38893,6950.229,96.108,573.806,570.383,0.0
56459.0,STARLINK-6048,PAYLOAD,2024-01-23 03:59:59,14.9832793,0.0002611,70.0005,302.2182,246.2155,113.873,-8.9686e-06,-2e-06,0.0,0 STARLINK-6048,1 56459U 23064M   24023.16666324 -.00000200  00000-0 -89686-5 0  9995,2 56459  70.0005 302.2182 0002611 246.2155 113.8730 14.98327930 39298,6950.199,96.107,573.879,570.25,0.0
56459.0,STARLINK-6048,PAYLOAD,2024-01-23 21:37:28,14.98329806,0.0002456,70.0007,300.3671,253.5258,106.5631,-5.3355e-05,-7.29e-06,0.0,0 STARLINK-6048,1 56459U 23064M   24023.90102286 -.00000729  00000-0 -53355-4 0  9998,2 56459  70.0007 300.3671 0002456 253.5258 106.5631 14.98329806 39040,6950.193,96.107,573.765,570.352,0.0
56459.0,STARLINK-6048,PAYLOAD,2024-01-24 04:02:00,14.98331034,0.0002424,70.0006,299.6937,250.2264,109.8634,-3.376e-05,-4.96e-06,0.0,0 STARLINK-6048,1 56459U 23064M   24024.16806140 -.00000496  00000-0 -33760-4 0  9996,2 56459  70.0006 299.6937 0002424 250.2264 109.8634 14.98331034 39449,6950.19,96.107,573.739,570.37,0.0
56459.0,STARLINK-6048,PAYLOAD,2024-01-24 21:39:29,14.9832551,0.0002549,70.0004,297.8424,248.3278,111.761,3.5509e-05,3.31e-06,0.0,0 STARLINK-6048,1 56459U 23064M   24024.90242347  .00000331  00000-0  35509-4 0  9990,2 56459  70.0004 297.8424 0002549 248.3278 111.7610 14.98325510 39199,6950.207,96.107,573.843,570.3,0.0
56459.0,STARLINK-6048,PAYLOAD,2024-01-25 04:04:01,14.98324469,0.0002562,70.0002,297.1689,249.8757,110.2127,1.9335e-05,1.38e-06,0.0,0 STARLINK-6048,1 56459U 23064M   24025.16946550  .00000138  00000-0  19335-4 0  9990,2 56459  70.0002 297.1689 0002562 249.8757 110.2127 14.98324469 39599,6950.21,96.107,573.856,570.294,0.0
56459.0,STARLINK-6048,PAYLOAD,2024-01-25 21:41:30,14.98327063,0.0002531,70.0002,295.317,253.7643,106.3238,1.4332e-05,7.8e-07,0.0,0 STARLINK-6048,1 56459U 23064M   24025.90382607  .00000078  00000-0  14332-4 0  9994,2 56459  70.0002 295.3170 0002531 253.7643 106.3238 14.98327063 39343,6950.202,96.107,573.826,570.308,0.0
56459.0,STARLINK-6048,PAYLOAD,2024-01-26 04:06:02,14.98329331,0.0002487,70.0002,294.6436,253.0814,107.0072,4.2683e-05,4.16e-06,0.0,0 STARLINK-6048,1 56459U 23064M   24026.17086442  .00000416  00000-0  42683-4 0  9998,2 56459  70.0002 294.6436 0002487 253.0814 107.0072 14.98329331 39741,6950.195,96.107,573.788,570.331,0.0
